STARLINK-36878          
1 67899U 26035W   26069.16668981 -.01284962  00000+0 -59624-2 0  9994
2 67899  97.2671   1.5547 0001450 107.4803   7.8437 15.85939768  3832
STARLINK-36361          
1 67900U 26035X   26069.16668981 -.01288798  00000+0 -59974-2 0  9996
2 67900  97.2669   1.5567 0001454 107.5580  12.4847 15.85888929  3830
STARLINK-36336          
1 67901U 26035Y   26069.16668981 -.01318664  00000+0 -61997-2 0  9991
2 67901  97.2676   1.5637 0001437  97.9565  36.3257 15.85740946  3884
STARLINK-36876          
1 67902U 26035Z   26069.16668981 -.01301294  00000+0 -60656-2 0  9994
2 67902  97.2676   1.5599 0001567 105.1915  19.3262 15.85879583  3839
STARLINK-36257          
1 67903U 26035AA  26069.16668981 -.01305773  00000+0 -60980-2 0  9991
2 67903  97.2673   1.5607 0001402  90.9326  38.1529 15.85852137  3888
STARLINK-36814          
1 67904U 26036A   26069.16668981 -.01979697  00000+0 -15466-1 0  9993
2 67904  42.9996 246.9617 0001792 273.4853 129.9141 15.73666053  3724
STARLINK-36729          
1 67905U 26036B   26068.96364195  .00302828  00000+0  13842-2 0  9991
2 67905  42.9992 248.1201 0002071 279.1565  80.9072 15.82119465  3716
STARLINK-36763          
1 67906U 26036C   26068.89976368  .00195584  00000+0  90861-3 0  9991
2 67906  42.9991 248.5006 0001658 287.2048  72.8643 15.82061167  3707
STARLINK-36742          
1 67907U 26036D   26068.89901138  .00267893  00000+0  12310-2 0  9990
2 67907  42.9993 248.4956 0002122 279.1110  80.9522 15.82098755  3709
STARLINK-36827          
1 67908U 26036E   26068.96139653  .00333800  00000+0  15202-2 0  9999
2 67908  42.9986 248.1012 0002108 299.4497  60.6164 15.82117013  3716
STARLINK-36822          
1 67909U 26036F   26068.96064622  .00410368  00000+0  18493-2 0  9993
2 67909  42.9986 248.0951 0001770 299.6042  60.4653 15.82145601  3715
STARLINK-36847          
1 67910U 26036G   26068.95989623  .00393218  00000+0  17758-2 0  9998
2 67910  42.9987 248.0891 0001960 297.1888  62.8784 15.82144193  3719
STARLINK-36736          
1 67911U 26036H   26068.95914595  .00388444  00000+0  17550-2 0  9990
2 67911  42.9990 248.0827 0002014 267.9025  92.1617 15.82146838  3711
STARLINK-36676          
1 67912U 26036J   26068.95839624  .00385344  00000+0  17417-2 0  9998
2 67912  42.9987 248.0765 0001838 288.2205  71.8467 15.82146067  3719
STARLINK-36690          
1 67913U 26036K   26068.95764796  .00360502  00000+0  16353-2 0  9993
2 67913  42.9988 248.0705 0001907 284.5891  75.4769 15.82133200  3712
STARLINK-36724          
1 67914U 26036L   26068.95614925  .00354373  00000+0  16090-2 0  9999
2 67914  42.9993 248.0577 0001751 273.9452  86.1220 15.82129688  3714
STARLINK-36723          
1 67915U 26036M   26068.95689966  .00408553  00000+0  18416-2 0  9991
2 67915  42.9988 248.0644 0001838 294.6637  65.4043 15.82144787  3715
